{
  "norad_id": 55247,
  "name": "LINUSS2",
  "history": [
    {
      "epoch": "2026-03-27T12:05:23.352864",
      "apogee_km": 36173.30046657345,
      "perigee_km": 36092.76730444794,
      "latitude_deg": 2.279566592999187,
      "longitude_deg": 17.059280959889293,
      "semi_major_axis_km": 42511.1708855107,
      "eccentricity": 0.0009472,
      "inclination_deg": 5.1811,
      "raan_deg": 64.7542,
      "arg_perigee_deg": 300.222,
      "mean_anomaly_deg": 230.3951,
      "mean_motion_rev_day": 0.99048559
    }
  ]
}